[{"OBJECT_NAME":"ONEWEB-0657","OBJECT_ID":"2023-029Y","EPOCH":"2026-03-09T23:31:49.684224","MEAN_MOTION":13.1972422,"ECCENTRICITY":0.00021216,"INCLINATION":87.9227,"RA_OF_ASC_NODE":324.7432,"ARG_OF_PERICENTER":63.2594,"MEAN_ANOMALY":296.8756,"EPHEMERIS_TYPE":0,"CLASSIFICATION_TYPE":"U","NORAD_CAT_ID":55818,"ELEMENT_SET_NO":999,"REV_AT_EPOCH":14582,"BSTAR":-0.00038037314,"MEAN_MOTION_DOT":-1.39e-6,"MEAN_MOTION_DDOT":0},{"OBJECT_NAME":"SL-14 DEB","OBJECT_ID":"1991-056DD","EPOCH":"2026-02-22T02:50:15.122976","MEAN_MOTION":13.24730307,"ECCENTRICITY":0.0033433,"INCLINATION":82.5458,"RA_OF_ASC_NODE":201.7449,"ARG_OF_PERICENTER":282.2949,"MEAN_ANOMALY":77.4435,"EPHEMERIS_TYPE":0,"CLASSIFICATION_TYPE":"U","NORAD_CAT_ID":47079,"ELEMENT_SET_NO":999,"REV_AT_EPOCH":25649,"BSTAR":0.0013771,"MEAN_MOTION_DOT":6.08e-6,"MEAN_MOTION_DDOT":0}]
